OBJECT_NAME,OBJECT_ID,EPOCH,MEAN_MOTION,ECCENTRICITY,INCLINATION,RA_OF_ASC_NODE,ARG_OF_PERICENTER,MEAN_ANOMALY,EPHEMERIS_TYPE,CLASSIFICATION_TYPE,NORAD_CAT_ID,ELEMENT_SET_NO,REV_AT_EPOCH,BSTAR,MEAN_MOTION_DOT,MEAN_MOTION_DDOT
STARLINK-37889,2026-133AE,2026-07-08T00:00:02.000160,15.49284582,.0001123,53.1600,219.0327,85.0846,209.0896,0,U,69536,999,521,.11614E-2,.64626E-3,0
ZHUQUE-2E R/B,2026-128C,2026-07-08T03:51:47.471904,15.64895665,.0066453,54.5273,204.6916,41.9869,318.6232,0,U,69537,999,450,.3612E-3,.40002E-3,0
2026-134A,2026-134A,2026-07-07T19:22:03.635328,15.09416081,.0015477,97.7002,258.9915,196.2635,163.8099,0,U,69538,999,342,.25955E-3,.4095E-4,0
2026-134B,2026-134B,2026-07-08T03:15:56.181888,15.09574453,.0015605,97.6979,259.3203,197.3947,162.6749,0,U,69539,999,346,.20424E-3,.3222E-4,0
2026-134C,2026-134C,2026-07-08T03:15:14.662368,15.09606725,.0015007,97.6986,259.3226,198.4786,161.5900,0,U,69540,999,346,.20387E-3,.3219E-4,0
2026-134D,2026-134D,2026-07-08T03:13:59.262816,15.09664512,.0016065,97.7024,259.3350,198.2646,161.8007,0,U,69541,999,346,.20248E-3,.3202E-4,0
2026-134E,2026-134E,2026-07-08T03:13:30.407808,15.09686267,.00158,97.7043,259.3408,198.9366,161.1277,0,U,69542,999,346,.20214E-3,.3199E-4,0
2026-134F,2026-134F,2026-07-08T03:12:30.182688,15.09732005,.0015052,97.6996,259.3282,200.5173,159.5453,0,U,69543,999,346,.19849E-3,.3143E-4,0
2026-134G,2026-134G,2026-07-08T03:10:39.906048,15.09816856,.0015515,97.7041,259.3425,201.3397,158.7186,0,U,69544,999,346,.19723E-3,.313E-4,0
2026-134H,2026-134H,2026-07-08T03:09:13.244256,15.09883613,.0015362,97.7025,259.3397,202.6065,157.4488,0,U,69545,999,345,.19644E-3,.3123E-4,0
STARLINK-37880,2026-135A,2026-07-08T02:00:03.000384,15.67538140,.0001969,97.2843,217.2656,73.9029,97.9809,0,U,69546,999,466,-.24837E-1,-.2370532E-1,0
STARLINK-37881,2026-135B,2026-07-08T02:00:03.000384,15.77366328,.0001758,97.2838,217.2893,89.9799,143.0270,0,U,69547,999,466,-.18184E-1,-.254655E-1,0
STARLINK-37265,2026-135C,2026-07-08T00:59:07.895040,15.81032327,.000152,97.2838,217.2457,111.7015,248.4415,0,U,69548,999,355,.10961E-2,.217269E-2,0
STARLINK-37871,2026-135D,2026-07-07T00:39:19.257408,15.80865436,.00011017,97.2844,216.1764,119.9823,240.1554,0,U,69549,999,339,.58732992E-3,.114098E-2,0
STARLINK-37865,2026-135E,2026-07-08T02:00:03.000384,15.76899257,.0001731,97.2841,217.2956,87.1738,161.7873,0,U,69550,999,466,-.17363E-1,-.2405422E-1,0
STARLINK-37862,2026-135F,2026-07-08T03:53:58.358400,15.80883386,.00004,97.2829,217.3872,142.8405,217.2891,0,U,69551,999,357,.46697E-3,.90514E-3,0
STARLINK-37861,2026-135G,2026-07-08T02:00:03.000384,15.77575340,.0001802,97.2841,217.3067,96.8058,178.0394,0,U,69552,999,466,-.1803E-1,-.2548538E-1,0
STARLINK-37859,2026-135H,2026-07-08T00:47:38.949216,15.80777128,.0004128,97.2806,217.2573,178.1307,181.9978,0,U,69553,999,355,.11341E-2,.222403E-2,0
STARLINK-37860,2026-135J,2026-07-07T00:28:43.355136,15.80952746,.00008532,97.2848,216.1878,124.6346,235.5003,0,U,69554,999,339,.12990455E-2,.257787E-2,0
STARLINK-37858,2026-135K,2026-07-08T02:00:03.000384,15.81376920,.0001397,97.2839,217.3175,112.7861,185.3656,0,U,69555,999,466,-.1259E-1,-.2124977E-1,0
STARLINK-37927,2026-135L,2026-07-07T00:25:45.770304,15.80866086,.00010848,97.2851,216.1903,58.4844,301.6530,0,U,69556,999,339,.780815E-3,.152409E-2,0
STARLINK-37929,2026-135M,2026-07-08T04:00:01.998720,15.72058606,.0001391,97.2842,217.3956,56.2236,335.4203,0,U,69557,999,468,-.2332E-1,-.264445E-1,0
STARLINK-37954,2026-135N,2026-07-08T02:00:03.000384,15.72272679,.0001485,97.2843,217.3118,90.7695,195.4110,0,U,69558,999,466,-.21335E-1,-.2413227E-1,0
STARLINK-37958,2026-135P,2026-07-07T10:57:14.517792,15.81197842,.00008161,97.2854,216.6654,105.5963,254.5396,0,U,69559,999,346,.18839808E-2,.383711E-2,0
STARLINK-37950,2026-135Q,2026-07-08T00:00:02.000160,15.80148669,.0001484,97.2843,217.2420,77.3376,134.7939,0,U,69560,999,465,-.10547E-1,-.1698994E-1,0
STARLINK-37952,2026-135R,2026-07-08T02:00:03.000384,15.76579874,.0001479,97.2840,217.3290,85.5083,242.3352,0,U,69561,999,467,-.17451E-1,-.2386254E-1,0
STARLINK-37935,2026-135S,2026-07-08T02:00:03.000384,15.71465496,.0001363,97.2841,217.3205,83.3127,225.2538,0,U,69562,999,467,-.22124E-1,-.2416988E-1,0
STARLINK-37936,2026-135T,2026-07-08T02:00:03.000384,15.73117210,.0001388,97.2845,217.3424,69.2938,288.5635,0,U,69563,999,467,-.20034E-1,-.2358689E-1,0
STARLINK-37932,2026-135U,2026-07-08T00:23:38.041728,15.81163862,.0001544,97.2824,217.2807,264.1427,95.9665,0,U,69564,999,355,.1111E-2,.221664E-2,0
STARLINK-37916,2026-135V,2026-07-07T19:49:39.112032,15.80797449,.0003548,97.2852,217.0805,134.8880,225.2676,0,U,69565,999,352,.16239E-2,.322456E-2,0
