STARLINK-37889          
1 69536U 26133AE  26189.00002315  .00064626  00000+0  11614-2 0  9999
2 69536  53.1600 219.0327 0001123  85.0846 209.0896 15.49284582  5218
ZHUQUE-2E R/B           
1 69537U 26128C   26189.16096611  .00040002  00000+0  36120-3 0  9995
2 69537  54.5273 204.6916 0066453  41.9869 318.6232 15.64895665  4506
2026-134A               
1 69538U 26134A   26188.80698652  .00004095  00000+0  25955-3 0  9992
2 69538  97.7002 258.9915 0015477 196.2635 163.8099 15.09416081  3423
2026-134B               
1 69539U 26134B   26189.13606692  .00003222  00000+0  20424-3 0  9990
2 69539  97.6979 259.3203 0015605 197.3947 162.6749 15.09574453  3463
2026-134C               
1 69540U 26134C   26189.13558637  .00003219  00000+0  20387-3 0  9991
2 69540  97.6986 259.3226 0015007 198.4786 161.5900 15.09606725  3462
2026-134D               
1 69541U 26134D   26189.13471369  .00003202  00000+0  20248-3 0  9996
2 69541  97.7024 259.3350 0016065 198.2646 161.8007 15.09664512  3462
2026-134E               
1 69542U 26134E   26189.13437972  .00003199  00000+0  20214-3 0  9997
2 69542  97.7043 259.3408 0015800 198.9366 161.1277 15.09686267  3463
2026-134F               
1 69543U 26134F   26189.13368267  .00003143  00000+0  19849-3 0  9999
2 69543  97.6996 259.3282 0015052 200.5173 159.5453 15.09732005  3464
2026-134G               
1 69544U 26134G   26189.13240632  .00003130  00000+0  19723-3 0  9992
2 69544  97.7041 259.3425 0015515 201.3397 158.7186 15.09816856  3468
2026-134H               
1 69545U 26134H   26189.13140329  .00003123  00000+0  19644-3 0  9999
2 69545  97.7025 259.3397 0015362 202.6065 157.4488 15.09883613  3450
STARLINK-37880          
1 69546U 26135A   26189.08336806 -.02370532  00000+0 -24837-1 0  9995
2 69546  97.2843 217.2656 0001969  73.9029  97.9809 15.67538140  4667
STARLINK-37881          
1 69547U 26135B   26189.08336806 -.02546550  00000+0 -18184-1 0  9999
2 69547  97.2838 217.2893 0001758  89.9799 143.0270 15.77366328  4665
STARLINK-37265          
1 69548U 26135C   26189.04106360  .00217269  00000+0  10961-2 0  9990
2 69548  97.2838 217.2457 0001520 111.7015 248.4415 15.81032327  3556
STARLINK-37871          
1 69549U 26135D   26188.02730622  .00114098  00000+0  58733-3 0  9998
2 69549  97.2844 216.1764 0001101 119.9823 240.1554 15.80865436  3394
STARLINK-37865          
1 69550U 26135E   26189.08336806 -.02405422  00000+0 -17363-1 0  9993
2 69550  97.2841 217.2956 0001731  87.1738 161.7873 15.76899257  4664
STARLINK-37862          
1 69551U 26135F   26189.16248100  .00090514  00000+0  46697-3 0  9994
2 69551  97.2829 217.3872 0000400 142.8405 217.2891 15.80883386  3578
STARLINK-37861          
1 69552U 26135G   26189.08336806 -.02548538  00000+0 -18030-1 0  9993
2 69552  97.2841 217.3067 0001802  96.8058 178.0394 15.77575340  4665
STARLINK-37859          
1 69553U 26135H   26189.03308969  .00222403  00000+0  11341-2 0  9993
2 69553  97.2806 217.2573 0004128 178.1307 181.9978 15.80777128  3553
STARLINK-37860          
1 69554U 26135J   26188.01994624  .00257787  00000+0  12990-2 0  9994
2 69554  97.2848 216.1878 0000853 124.6346 235.5003 15.80952746  3394
STARLINK-37858          
1 69555U 26135K   26189.08336806 -.02124977  00000+0 -12590-1 0  9998
2 69555  97.2839 217.3175 0001397 112.7861 185.3656 15.81376920  4664
STARLINK-37927          
1 69556U 26135L   26188.01789086  .00152409  00000+0  78081-3 0  9999
2 69556  97.2851 216.1903 0001084  58.4844 301.6530 15.80866086  3394
STARLINK-37929          
1 69557U 26135M   26189.16668980 -.02644450  00000+0 -23320-1 0  9996
2 69557  97.2842 217.3956 0001391  56.2236 335.4203 15.72058606  4685
STARLINK-37954          
1 69558U 26135N   26189.08336806 -.02413227  00000+0 -21335-1 0  9997
2 69558  97.2843 217.3118 0001485  90.7695 195.4110 15.72272679  4660
STARLINK-37958          
1 69559U 26135P   26188.45641803  .00383711  00000+0  18840-2 0  9992
2 69559  97.2854 216.6654 0000816 105.5963 254.5396 15.81197842  3468
STARLINK-37950          
1 69560U 26135Q   26189.00002315 -.01698994  00000+0 -10547-1 0  9995
2 69560  97.2843 217.2420 0001484  77.3376 134.7939 15.80148669  4658
STARLINK-37952          
1 69561U 26135R   26189.08336806 -.02386254  00000+0 -17451-1 0  9994
2 69561  97.2840 217.3290 0001479  85.5083 242.3352 15.76579874  4670
STARLINK-37935          
1 69562U 26135S   26189.08336806 -.02416988  00000+0 -22124-1 0  9996
2 69562  97.2841 217.3205 0001363  83.3127 225.2538 15.71465496  4670
STARLINK-37936          
1 69563U 26135T   26189.08336806 -.02358689  00000+0 -20034-1 0  9998
2 69563  97.2845 217.3424 0001388  69.2938 288.5635 15.73117210  4678
STARLINK-37932          
1 69564U 26135U   26189.01641252  .00221664  00000+0  11110-2 0  9990
2 69564  97.2824 217.2807 0001544 264.1427  95.9665 15.81163862  3555
STARLINK-37916          
1 69565U 26135V   26188.82614713  .00322456  00000+0  16239-2 0  9999
2 69565  97.2852 217.0805 0003548 134.8880 225.2676 15.80797449  3525
